{"type": "FeatureCollection", "features": [ {"type": "Feature", "properties": {"norad_id": 34738, "name": "COSMOS 2251 DEB", "group": "cosmos-2251-debris", "lat": -47.24483237715397, "lon": 107.1987167281961, "alt_km": 718.3467040462729, "timestamp": "2025-12-22T08:58:20.757754+00:00", "meta": {"OBJECT_NAME": "COSMOS 2251 DEB", "OBJECT_ID": "1993-036ZG", "EPOCH": "2025-12-22T03:22:56.180928", "MEAN_MOTION": 14.46323127, "ECCENTRICITY": 0.0047552, "INCLINATION": 74.0154, "RA_OF_ASC_NODE": 125.695, "ARG_OF_PERICENTER": 270.2285, "MEAN_ANOMALY": 267.4106, "EPHEMERIS_TYPE": 0, "CLASSIFICATION_TYPE": "U", "NORAD_CAT_ID": 34738, "ELEMENT_SET_NO": 999, "REV_AT_EPOCH": 87994, "BSTAR": 0.00029813, "MEAN_MOTION_DOT": 1.056e-05, "MEAN_MOTION_DDOT": 0}, "tle": {"line1": "1 34738U 93036ZG  25356.14092802  .00001056  00000+0  29813-3 0  9990", "line2": "2 34738  74.0154 125.6950 0047552 270.2285 267.4106 14.46323127879941"}}, "geometry": {"type": "Point", "coordinates": [107.1987167281961, -47.24483237715397]}}, {"type": "Feature", "properties": {"norad_id": 34750, "name": "COSMOS 2251 DEB", "group": "cosmos-2251-debris", "lat": -74.08758982102397, "lon": 91.48442541841327, "alt_km": 715.1682025474356, "timestamp": "2025-12-22T08:58:20.757764+00:00", "meta": {"OBJECT_NAME": "COSMOS 2251 DEB", "OBJECT_ID": "1993-036ZU", "EPOCH": "2025-12-21T12:09:31.852224", "MEAN_MOTION": 14.613988, "ECCENTRICITY": 0.003846, "INCLINATION": 74.1061, "RA_OF_ASC_NODE": 185.0597, "ARG_OF_PERICENTER": 135.1733, "MEAN_ANOMALY": 253.3274, "EPHEMERIS_TYPE": 0, "CLASSIFICATION_TYPE": "U", "NORAD_CAT_ID": 34750, "ELEMENT_SET_NO": 999, "REV_AT_EPOCH": 88359, "BSTAR": 0.00079183855, "MEAN_MOTION_DOT": 3.932e-05, "MEAN_MOTION_DDOT": 0}, "tle": {"line1": "1 34750U 93036ZU  25355.50661866  .00003932  00000+0  79184-3 0  9996", "line2": "2 34750  74.1061 185.0597 0038460 135.1733 253.3274 14.61398800883598"}}, "geometry": {"type": "Point", "coordinates": [91.48442541841327, -74.08758982102397]}}, {"type": "Feature", "properties": {"norad_id": 34752, "name": "COSMOS 2251 DEB", "group": "cosmos-2251-debris", "lat": -47.67735481084896, "lon": -37.35566428776659, "alt_km": 603.2325772022905, "timestamp": "2025-12-22T08:58:20.757774+00:00", "meta": {"OBJECT_NAME": "COSMOS 2251 DEB", "OBJECT_ID": "1993-036ZW", "EPOCH": "2025-12-21T09:11:20.743008", "MEAN_MOTION": 15.00105558, "ECCENTRICITY": 0.00475006, "INCLINATION": 74.0131, "RA_OF_ASC_NODE": 343.0108, "ARG_OF_PERICENTER": 108.6219, "MEAN_ANOMALY": 252.0135, "EPHEMERIS_TYPE": 0, "CLASSIFICATION_TYPE": "U", "NORAD_CAT_ID": 34752, "ELEMENT_SET_NO": 999, "REV_AT_EPOCH": 89979, "BSTAR": 0.00079721922, "MEAN_MOTION_DOT": 0.00010156, "MEAN_MOTION_DDOT": 0}, "tle": {"line1": "1 34752U 93036ZW  25355.38287897  .00010156  00000+0  79722-3 0  9996", "line2": "2 34752  74.0131 343.0108 0047500 108.6219 252.0135 15.00105558899791"}}, "geometry": {"type": "Point", "coordinates": [-37.35566428776659, -47.67735481084896]}}, {"type": "Feature", "properties": {"norad_id": 34754, "name": "COSMOS 2251 DEB", "group": "cosmos-2251-debris", "lat": 19.929573508694507, "lon": -144.257966733926, "alt_km": 744.8600049107908, "timestamp": "2025-12-22T08:58:20.757784+00:00", "meta": {"OBJECT_NAME": "COSMOS 2251 DEB", "OBJECT_ID": "1993-036ZY", "EPOCH": "2025-12-21T21:18:13.728960", "MEAN_MOTION": 14.40493812, "ECCENTRICITY": 0.0029908, "INCLINATION": 74.0293, "RA_OF_ASC_NODE": 210.6811, "ARG_OF_PERICENTER": 325.0325, "MEAN_ANOMALY": 55.2832, "EPHEMERIS_TYPE": 0, "CLASSIFICATION_TYPE": "U", "NORAD_CAT_ID": 34754, "ELEMENT_SET_NO": 999, "REV_AT_EPOCH": 88265, "BSTAR": 0.00018134, "MEAN_MOTION_DOT": 5.53e-06, "MEAN_MOTION_DDOT": 0}, "tle": {"line1": "1 34754U 93036ZY  25355.88765890  .00000553  00000+0  18134-3 0  9997", "line2": "2 34754  74.0293 210.6811 0029908 325.0325  55.2832 14.40493812882657"}}, "geometry": {"type": "Point", "coordinates": [-144.257966733926, 19.929573508694507]}}, {"type": "Feature", "properties": {"norad_id": 34755, "name": "COSMOS 2251 DEB", "group": "cosmos-2251-debris", "lat": -64.58198490400713, "lon": 131.89332519478523, "alt_km": 847.8385708611386, "timestamp": "2025-12-22T08:58:20.757795+00:00", "meta": {"OBJECT_NAME": "COSMOS 2251 DEB", "OBJECT_ID": "1993-036ZZ", "EPOCH": "2025-12-20T18:30:29.240064", "MEAN_MOTION": 13.50572591, "ECCENTRICITY": 0.04081275, "INCLINATION": 73.9255, "RA_OF_ASC_NODE": 277.1155, "ARG_OF_PERICENTER": 295.5233, "MEAN_ANOMALY": 88.1239, "EPHEMERIS_TYPE": 0, "CLASSIFICATION_TYPE": "U", "NORAD_CAT_ID": 34755, "ELEMENT_SET_NO": 999, "REV_AT_EPOCH": 82632, "BSTAR": 0.00057435404, "MEAN_MOTION_DOT": 5.95e-06, "MEAN_MOTION_DDOT": 0}, "tle": {"line1": "1 34755U 93036ZZ  25354.77117176  .00000595  00000+0  57435-3 0  9996", "line2": "2 34755  73.9255 277.1155 0408127 295.5233  88.1239 13.50572591826326"}}, "geometry": {"type": "Point", "coordinates": [131.89332519478523, -64.58198490400713]}}, {"type": "Feature", "properties": {"norad_id": 34756, "name": "COSMOS 2251 DEB", "group": "cosmos-2251-debris", "lat": 19.676523523552156, "lon": 94.41381025125317, "alt_km": 868.7165438955008, "timestamp": "2025-12-22T08:58:20.757806+00:00", "meta": {"OBJECT_NAME": "COSMOS 2251 DEB", "OBJECT_ID": "1993-036AAA", "EPOCH": "2025-12-22T00:05:50.326944", "MEAN_MOTION": 13.67265567, "ECCENTRICITY": 0.0345703, "INCLINATION": 74.0032, "RA_OF_ASC_NODE": 89.1341, "ARG_OF_PERICENTER": 322.9544, "MEAN_ANOMALY": 34.8145, "EPHEMERIS_TYPE": 0, "CLASSIFICATION_TYPE": "U", "NORAD_CAT_ID": 34756, "ELEMENT_SET_NO": 999, "REV_AT_EPOCH": 83548, "BSTAR": 0.00099473, "MEAN_MOTION_DOT": 1.239e-05, "MEAN_MOTION_DDOT": 0}, "tle": {"line1": "1 34756U 93036AAA 25356.00405471  .00001239  00000+0  99473-3 0  9997", "line2": "2 34756  74.0032  89.1341 0345703 322.9544  34.8145 13.67265567835481"}}, "geometry": {"type": "Point", "coordinates": [94.41381025125317, 19.676523523552156]}}, {"type": "Feature", "properties": {"norad_id": 34758, "name": "COSMOS 2251 DEB", "group": "cosmos-2251-debris", "lat": 4.336654241682979, "lon": 102.75416026417952, "alt_km": 1220.0228633915303, "timestamp": "2025-12-22T08:58:20.757838+00:00", "meta": {"OBJECT_NAME": "COSMOS 2251 DEB", "OBJECT_ID": "1993-036AAC", "EPOCH": "2025-12-22T01:04:20.470368", "MEAN_MOTION": 13.58103119, "ECCENTRICITY": 0.0382123, "INCLINATION": 74.1074, "RA_OF_ASC_NODE": 284.5217, "ARG_OF_PERICENTER": 46.0602, "MEAN_ANOMALY": 317.1374, "EPHEMERIS_TYPE": 0, "CLASSIFICATION_TYPE": "U", "NORAD_CAT_ID": 34758, "ELEMENT_SET_NO": 999, "REV_AT_EPOCH": 83036, "BSTAR": 0.0016437, "MEAN_MOTION_DOT": 1.898e-05, "MEAN_MOTION_DDOT": 0}, "tle": {"line1": "1 34758U 93036AAC 25356.04468137  .00001898  00000+0  16437-2 0  9990", "line2": "2 34758  74.1074 284.5217 0382123  46.0602 317.1374 13.58103119830366"}}, "geometry": {"type": "Point", "coordinates": [102.75416026417952, 4.336654241682979]}}, {"type": "Feature", "properties": {"norad_id": 34760, "name": "COSMOS 2251 DEB", "group": "cosmos-2251-debris", "lat": 32.63282614702403, "lon": -64.29043357976265, "alt_km": 787.9052341937922, "timestamp": "2025-12-22T08:58:20.757850+00:00", "meta": {"OBJECT_NAME": "COSMOS 2251 DEB", "OBJECT_ID": "1993-036AAE", "EPOCH": "2025-12-21T02:27:21.793248", "MEAN_MOTION": 14.19589207, "ECCENTRICITY": 0.00971621, "INCLINATION": 74.0634, "RA_OF_ASC_NODE": 287.4354, "ARG_OF_PERICENTER": 337.728, "MEAN_ANOMALY": 39.9901, "EPHEMERIS_TYPE": 0, "CLASSIFICATION_TYPE": "U", "NORAD_CAT_ID": 34760, "ELEMENT_SET_NO": 999, "REV_AT_EPOCH": 86807, "BSTAR": 0.00035110711, "MEAN_MOTION_DOT": 7.51e-06, "MEAN_MOTION_DDOT": 0}, "tle": {"line1": "1 34760U 93036AAE 25355.10233557  .00000751  00000+0  35111-3 0  9993", "line2": "2 34760  74.0634 287.4354 0097162 337.7280  39.9901 14.19589207868070"}}, "geometry": {"type": "Point", "coordinates": [-64.29043357976265, 32.63282614702403]}}, {"type": "Feature", "properties": {"norad_id": 34761, "name": "COSMOS 2251 DEB", "group": "cosmos-2251-debris", "lat": -50.65942961473356, "lon": -174.51274034906007, "alt_km": 792.4089934341619, "timestamp": "2025-12-22T08:58:20.757860+00:00", "meta": {"OBJECT_NAME": "COSMOS 2251 DEB", "OBJECT_ID": "1993-036AAF", "EPOCH": "2025-12-21T16:51:48.477024", "MEAN_MOTION": 14.38078781, "ECCENTRICITY": 0.0036891, "INCLINATION": 74.0285, "RA_OF_ASC_NODE": 346.2732, "ARG_OF_PERICENTER": 17.8484, "MEAN_ANOMALY": 342.3956, "EPHEMERIS_TYPE": 0, "CLASSIFICATION_TYPE": "U", "NORAD_CAT_ID": 34761, "ELEMENT_SET_NO": 999, "REV_AT_EPOCH": 87778, "BSTAR": 0.00050258, "MEAN_MOTION_DOT": 1.509e-05, "MEAN_MOTION_DDOT": 0}, "tle": {"line1": "1 34761U 93036AAF 25355.70264441  .00001509  00000+0  50258-3 0  9997", "line2": "2 34761  74.0285 346.2732 0036891  17.8484 342.3956 14.38078781877781"}}, "geometry": {"type": "Point", "coordinates": [-174.51274034906007, -50.65942961473356]}}, {"type": "Feature", "properties": {"norad_id": 34784, "name": "COSMOS 2251 DEB", "group": "cosmos-2251-debris", "lat": 6.591375463354602, "lon": 124.01522694772049, "alt_km": 675.1177308221368, "timestamp": "2025-12-22T08:58:20.757870+00:00", "meta": {"OBJECT_NAME": "COSMOS 2251 DEB", "OBJECT_ID": "1993-036AAM", "EPOCH": "2025-12-22T03:15:24.679584", "MEAN_MOTION": 14.60818726, "ECCENTRICITY": 0.0049181, "INCLINATION": 74.0079, "RA_OF_ASC_NODE": 306.3699, "ARG_OF_PERICENTER": 112.8499, "MEAN_ANOMALY": 247.7872, "EPHEMERIS_TYPE": 0, "CLASSIFICATION_TYPE": "U", "NORAD_CAT_ID": 34784, "ELEMENT_SET_NO": 999, "REV_AT_EPOCH": 88672, "BSTAR": 0.00046694, "MEAN_MOTION_DOT": 2.29e-05, "MEAN_MOTION_DDOT": 0}, "tle": {"line1": "1 34784U 93036AAM 25356.13570231  .00002290  00000+0  46694-3 0  9994", "line2": "2 34784  74.0079 306.3699 0049181 112.8499 247.7872 14.60818726886729"}}, "geometry": {"type": "Point", "coordinates": [124.01522694772049, 6.591375463354602]}}]}